#Pass ID: 20250114_071559_FENGYUN 3F
#Satellite: FENGYUN 3F
#Configuration: FENGYUN 3F
#Start time: 2025-01-14 07:16:04.931663

#LorettStation: 1.0.0 05.05.2024
#Station: Regia
#Location: 37.494653 lon 55.929028 lat
#TLE: 1 57490U 23111A   25013.92853700  .00000148  00000+0  90131-4 0  9998
#TLE: 2 57490  98.7466  86.8804 0001141 142.2426 217.8831 14.19975614 75176

#Time	Az	El	Level	SNR
#Closed at: 2025-01-14 07:15:59.933816